[Satellite]
VERSION=1.1
NAME=HORYU 2
NICKNAME=HORYU 2
TLE1=1 38340U 12025D   20156.73537216  .00000152  00000-0  30117-4 0  9990
TLE2=2 38340  98.2812 209.9611 0012869  83.4601 276.8072 14.75854010433081
STATUS=0
